SL-16 R/B               
1 22566U 93016B   25354.83313974  .00000299  00000+0  17775-3 0  9996
2 22566  71.0080  20.8052 0008023  81.6769 278.5264 14.15289635691011
COSMOS 2242             
1 22626U 93024A   25354.92903411  .00001483  00000+0  12919-3 0  9994
2 22626  82.5185 342.0168 0015499 204.6555 155.3928 14.96136214768616
SL-16 R/B               
1 22803U 93059B   25354.84905785  .00000107  00000+0  76932-4 0  9994
2 22803  70.9880 177.3855 0018366 324.2282  35.7610 14.17213472668365
ARIANE 40 R/B           
1 22830U 93061H   25354.92843419  .00000183  00000+0  83068-4 0  9993
2 22830  98.5065  60.3091 0011325 152.5950 207.5833 14.32806318682828
COSMOS 2278             
1 23087U 94023A   25354.95219155 -.00000149  00000+0 -53301-4 0  9995
2 23087  71.0533 339.8286 0007912 165.0533 195.0825 14.14348146633673
SL-16 R/B               
1 23088U 94023B   25354.89312727 -.00000231  00000+0 -94830-4 0  9992
2 23088  70.9988 236.3640 0001842   8.1697 351.9456 14.15001323634943
SL-16 R/B               
1 23343U 94074B   25354.66617977  .00000313  00000+0  48730-4 0  9999
2 23343  97.7193  23.6555 0007937 114.0102 358.5990 14.79297794675561
SL-16 R/B               
1 23405U 94077B   25354.90548246 -.00000055  00000+0 -38365-5 0  9999
2 23405  70.9822 158.2358 0004998 279.7189  80.3369 14.15552964605089
ARIANE 40+ R/B          
1 23561U 95021B   25354.95902361  .00000223  00000+0  85246-4 0  9993
2 23561  98.4641  62.4485 0007075  27.3202 145.4002 14.39701144607918
SL-16 R/B               
1 23705U 95058B   25354.97924111 -.00000257  00000+0 -10714-3 0  9998
2 23705  71.0219 345.5055 0014846 244.6518 115.3068 14.15482665556719
SL-16 R/B               
1 24298U 96051B   25354.42069747 -.00000047  00000+0  11942-5 0  9997
2 24298  70.7595 343.0253 0019473 251.9483 107.9516 14.12397280510457
ORBVIEW 2 (SEASTAR)     
1 24883U 97037A   25354.44351821  .00000190  00000+0  82334-4 0  9991
2 24883  98.8461 151.7121 0001359 310.1600  49.9466 14.35422194497104
