CCSDS_OMM_VERS = 2.0
CREATION_DATE  = 
ORIGINATOR     = 

OBJECT_NAME    = SL-16 R/B
OBJECT_ID      = 1993-016B
CENTER_NAME    = EARTH
REF_FRAME      = TEME
TIME_SYSTEM    = UTC
MEAN_ELEMENT_THEORY = SGP/SGP4

EPOCH          = 2025-12-20T19:59:43.273536
MEAN_MOTION    = 14.15289635
ECCENTRICITY   = .00080232
INCLINATION    = 71.0080
RA_OF_ASC_NODE = 20.8052
ARG_OF_PERICENTER = 81.6769
MEAN_ANOMALY   = 278.5264

EPHEMERIS_TYPE = 0
CLASSIFICATION_TYPE = U
NORAD_CAT_ID   = 22566
ELEMENT_SET_NO = 999
REV_AT_EPOCH   = 69101
BSTAR          = .17775321E-3
MEAN_MOTION_DOT = .299E-5
MEAN_MOTION_DDOT = 0

CCSDS_OMM_VERS = 2.0
CREATION_DATE  = 
ORIGINATOR     = 

OBJECT_NAME    = COSMOS 2242
OBJECT_ID      = 1993-024A
CENTER_NAME    = EARTH
REF_FRAME      = TEME
TIME_SYSTEM    = UTC
MEAN_ELEMENT_THEORY = SGP/SGP4

EPOCH          = 2025-12-20T22:17:48.547104
MEAN_MOTION    = 14.96136214
ECCENTRICITY   = .00154995
INCLINATION    = 82.5185
RA_OF_ASC_NODE = 342.0168
ARG_OF_PERICENTER = 204.6555
MEAN_ANOMALY   = 155.3928

EPHEMERIS_TYPE = 0
CLASSIFICATION_TYPE = U
NORAD_CAT_ID   = 22626
ELEMENT_SET_NO = 999
REV_AT_EPOCH   = 76861
BSTAR          = .12918837E-3
MEAN_MOTION_DOT = .1483E-4
MEAN_MOTION_DDOT = 0

CCSDS_OMM_VERS = 2.0
CREATION_DATE  = 
ORIGINATOR     = 

OBJECT_NAME    = SL-16 R/B
OBJECT_ID      = 1993-059B
CENTER_NAME    = EARTH
REF_FRAME      = TEME
TIME_SYSTEM    = UTC
MEAN_ELEMENT_THEORY = SGP/SGP4

EPOCH          = 2025-12-20T20:22:38.598240
MEAN_MOTION    = 14.17213472
ECCENTRICITY   = .00183661
INCLINATION    = 70.9880
RA_OF_ASC_NODE = 177.3855
ARG_OF_PERICENTER = 324.2282
MEAN_ANOMALY   = 35.7610

EPHEMERIS_TYPE = 0
CLASSIFICATION_TYPE = U
NORAD_CAT_ID   = 22803
ELEMENT_SET_NO = 999
REV_AT_EPOCH   = 66836
BSTAR          = .76932474E-4
MEAN_MOTION_DOT = .107E-5
MEAN_MOTION_DDOT = 0

CCSDS_OMM_VERS = 2.0
CREATION_DATE  = 
ORIGINATOR     = 

OBJECT_NAME    = ARIANE 40 R/B
OBJECT_ID      = 1993-061H
CENTER_NAME    = EARTH
REF_FRAME      = TEME
TIME_SYSTEM    = UTC
MEAN_ELEMENT_THEORY = SGP/SGP4

EPOCH          = 2025-12-20T22:16:56.714016
MEAN_MOTION    = 14.32806318
ECCENTRICITY   = .00113258
INCLINATION    = 98.5065
RA_OF_ASC_NODE = 60.3091
ARG_OF_PERICENTER = 152.5950
MEAN_ANOMALY   = 207.5833

EPHEMERIS_TYPE = 0
CLASSIFICATION_TYPE = U
NORAD_CAT_ID   = 22830
ELEMENT_SET_NO = 999
REV_AT_EPOCH   = 68282
BSTAR          = .83067966E-4
MEAN_MOTION_DOT = .183E-5
MEAN_MOTION_DDOT = 0

CCSDS_OMM_VERS = 2.0
CREATION_DATE  = 
ORIGINATOR     = 

OBJECT_NAME    = COSMOS 2278
OBJECT_ID      = 1994-023A
CENTER_NAME    = EARTH
REF_FRAME      = TEME
TIME_SYSTEM    = UTC
MEAN_ELEMENT_THEORY = SGP/SGP4

EPOCH          = 2025-12-20T22:51:09.349920
MEAN_MOTION    = 14.14348146
ECCENTRICITY   = .00079129
INCLINATION    = 71.0533
RA_OF_ASC_NODE = 339.8286
ARG_OF_PERICENTER = 165.0533
MEAN_ANOMALY   = 195.0825

EPHEMERIS_TYPE = 0
CLASSIFICATION_TYPE = U
NORAD_CAT_ID   = 23087
ELEMENT_SET_NO = 999
REV_AT_EPOCH   = 63367
BSTAR          = -.53300569E-4
MEAN_MOTION_DOT = -.149E-5
MEAN_MOTION_DDOT = 0

CCSDS_OMM_VERS = 2.0
CREATION_DATE  = 
ORIGINATOR     = 

OBJECT_NAME    = SL-16 R/B
OBJECT_ID      = 1994-023B
CENTER_NAME    = EARTH
REF_FRAME      = TEME
TIME_SYSTEM    = UTC
MEAN_ELEMENT_THEORY = SGP/SGP4

EPOCH          = 2025-12-20T21:26:06.196128
MEAN_MOTION    = 14.15001323
ECCENTRICITY   = .00018422
INCLINATION    = 70.9988
RA_OF_ASC_NODE = 236.3640
ARG_OF_PERICENTER = 8.1697
MEAN_ANOMALY   = 351.9456

EPHEMERIS_TYPE = 0
CLASSIFICATION_TYPE = U
NORAD_CAT_ID   = 23088
ELEMENT_SET_NO = 999
REV_AT_EPOCH   = 63494
BSTAR          = -.94830162E-4
MEAN_MOTION_DOT = -.231E-5
MEAN_MOTION_DDOT = 0

CCSDS_OMM_VERS = 2.0
CREATION_DATE  = 
ORIGINATOR     = 

OBJECT_NAME    = SL-16 R/B
OBJECT_ID      = 1994-074B
CENTER_NAME    = EARTH
REF_FRAME      = TEME
TIME_SYSTEM    = UTC
MEAN_ELEMENT_THEORY = SGP/SGP4

EPOCH          = 2025-12-20T15:59:17.932128
MEAN_MOTION    = 14.79297794
ECCENTRICITY   = .0007937
INCLINATION    = 97.7193
RA_OF_ASC_NODE = 23.6555
ARG_OF_PERICENTER = 114.0102
MEAN_ANOMALY   = 358.5990

EPHEMERIS_TYPE = 0
CLASSIFICATION_TYPE = U
NORAD_CAT_ID   = 23343
ELEMENT_SET_NO = 999
REV_AT_EPOCH   = 67556
BSTAR          = .4873E-4
MEAN_MOTION_DOT = .313E-5
MEAN_MOTION_DDOT = 0

CCSDS_OMM_VERS = 2.0
CREATION_DATE  = 
ORIGINATOR     = 

OBJECT_NAME    = SL-16 R/B
OBJECT_ID      = 1994-077B
CENTER_NAME    = EARTH
REF_FRAME      = TEME
TIME_SYSTEM    = UTC
MEAN_ELEMENT_THEORY = SGP/SGP4

EPOCH          = 2025-12-20T21:43:53.684544
MEAN_MOTION    = 14.15552964
ECCENTRICITY   = .0004998
INCLINATION    = 70.9822
RA_OF_ASC_NODE = 158.2358
ARG_OF_PERICENTER = 279.7189
MEAN_ANOMALY   = 80.3369

EPHEMERIS_TYPE = 0
CLASSIFICATION_TYPE = U
NORAD_CAT_ID   = 23405
ELEMENT_SET_NO = 999
REV_AT_EPOCH   = 60508
BSTAR          = -.3836457E-5
MEAN_MOTION_DOT = -.55E-6
MEAN_MOTION_DDOT = 0

CCSDS_OMM_VERS = 2.0
CREATION_DATE  = 
ORIGINATOR     = 

OBJECT_NAME    = ARIANE 40+ R/B
OBJECT_ID      = 1995-021B
CENTER_NAME    = EARTH
REF_FRAME      = TEME
TIME_SYSTEM    = UTC
MEAN_ELEMENT_THEORY = SGP/SGP4

EPOCH          = 2025-12-20T23:00:59.639904
MEAN_MOTION    = 14.39701144
ECCENTRICITY   = .0007075
INCLINATION    = 98.4641
RA_OF_ASC_NODE = 62.4485
ARG_OF_PERICENTER = 27.3202
MEAN_ANOMALY   = 145.4002

EPHEMERIS_TYPE = 0
CLASSIFICATION_TYPE = U
NORAD_CAT_ID   = 23561
ELEMENT_SET_NO = 999
REV_AT_EPOCH   = 60791
BSTAR          = .85246014E-4
MEAN_MOTION_DOT = .223E-5
MEAN_MOTION_DDOT = 0

CCSDS_OMM_VERS = 2.0
CREATION_DATE  = 
ORIGINATOR     = 

OBJECT_NAME    = SL-16 R/B
OBJECT_ID      = 1995-058B
CENTER_NAME    = EARTH
REF_FRAME      = TEME
TIME_SYSTEM    = UTC
MEAN_ELEMENT_THEORY = SGP/SGP4

EPOCH          = 2025-12-20T23:30:06.431904
MEAN_MOTION    = 14.15482665
ECCENTRICITY   = .00148464
INCLINATION    = 71.0219
RA_OF_ASC_NODE = 345.5055
ARG_OF_PERICENTER = 244.6518
MEAN_ANOMALY   = 115.3068

EPHEMERIS_TYPE = 0
CLASSIFICATION_TYPE = U
NORAD_CAT_ID   = 23705
ELEMENT_SET_NO = 999
REV_AT_EPOCH   = 55671
BSTAR          = -.10714388E-3
MEAN_MOTION_DOT = -.257E-5
MEAN_MOTION_DDOT = 0

CCSDS_OMM_VERS = 2.0
CREATION_DATE  = 
ORIGINATOR     = 

OBJECT_NAME    = SL-16 R/B
OBJECT_ID      = 1996-051B
CENTER_NAME    = EARTH
REF_FRAME      = TEME
TIME_SYSTEM    = UTC
MEAN_ELEMENT_THEORY = SGP/SGP4

EPOCH          = 2025-12-20T10:05:48.261408
MEAN_MOTION    = 14.12397280
ECCENTRICITY   = .00194739
INCLINATION    = 70.7595
RA_OF_ASC_NODE = 343.0253
ARG_OF_PERICENTER = 251.9483
MEAN_ANOMALY   = 107.9516

EPHEMERIS_TYPE = 0
CLASSIFICATION_TYPE = U
NORAD_CAT_ID   = 24298
ELEMENT_SET_NO = 999
REV_AT_EPOCH   = 51045
BSTAR          = .1194244E-5
MEAN_MOTION_DOT = -.47E-6
MEAN_MOTION_DDOT = 0

CCSDS_OMM_VERS = 2.0
CREATION_DATE  = 
ORIGINATOR     = 

OBJECT_NAME    = ORBVIEW 2 (SEASTAR)
OBJECT_ID      = 1997-037A
CENTER_NAME    = EARTH
REF_FRAME      = TEME
TIME_SYSTEM    = UTC
MEAN_ELEMENT_THEORY = SGP/SGP4

EPOCH          = 2025-12-20T10:38:39.973344
MEAN_MOTION    = 14.35422194
ECCENTRICITY   = .00013595
INCLINATION    = 98.8461
RA_OF_ASC_NODE = 151.7121
ARG_OF_PERICENTER = 310.1600
MEAN_ANOMALY   = 49.9466

EPHEMERIS_TYPE = 0
CLASSIFICATION_TYPE = U
NORAD_CAT_ID   = 24883
ELEMENT_SET_NO = 999
REV_AT_EPOCH   = 49710
BSTAR          = .82333964E-4
MEAN_MOTION_DOT = .19E-5
MEAN_MOTION_DDOT = 0

